{
  "type": "FeatureCollection",
  "features": [
    {
      "type": "Feature",
      "properties": {
        "norad_id": 41330,
        "name": "COSMOS 2514 (751)",
        "group": "glo-ops",
        "lat": 64.0392109185921,
        "lon": 31.250706699479966,
        "alt_km": 19145.08133450338,
        "timestamp": "2025-12-22T11:33:20.700598+00:00",
        "meta_object_name": "COSMOS 2514 (751)",
        "meta_object_id": "2016-008A",
        "meta_epoch": "2025-12-21T10:27:05.552352",
        "meta_mean_motion": 2.13102677,
        "meta_eccentricity": 0.0011723,
        "meta_inclination": 65.1288,
        "meta_ra_of_asc_node": 319.1063,
        "meta_arg_of_pericenter": 220.1275,
        "meta_mean_anomaly": 139.7798,
        "meta_ephemeris_type": 0,
        "meta_classification_type": "U",
        "meta_norad_cat_id": 41330,
        "meta_element_set_no": 999,
        "meta_rev_at_epoch": 7683,
        "meta_bstar": 0,
        "meta_mean_motion_dot": -4.6e-07,
        "meta_mean_motion_ddot": 0,
        "tle_line1": "1 41330U 16008A   25355.43548093 -.00000046  00000+0  00000+0 0  9991",
        "tle_line2": "2 41330  65.1288 319.1063 0011723 220.1275 139.7798  2.13102677 76836"
      },
      "geometry": {
        "type": "Point",
        "coordinates": [
          31.250706699479966,
          64.0392109185921
        ]
      }
    },
    {
      "type": "Feature",
      "properties": {
        "norad_id": 42939,
        "name": "COSMOS 2522 (752)",
        "group": "glo-ops",
        "lat": -23.623396438559286,
        "lon": 30.192068711139232,
        "alt_km": 19117.910012877226,
        "timestamp": "2025-12-22T11:33:20.700610+00:00",
        "meta_object_name": "COSMOS 2522 (752)",
        "meta_object_id": "2017-055A",
        "meta_epoch": "2025-12-20T19:18:35.639424",
        "meta_mean_motion": 2.13102071,
        "meta_eccentricity": 0.00063061,
        "meta_inclination": 64.0764,
        "meta_ra_of_asc_node": 197.9542,
        "meta_arg_of_pericenter": 223.7674,
        "meta_mean_anomaly": 136.256,
        "meta_ephemeris_type": 0,
        "meta_classification_type": "U",
        "meta_norad_cat_id": 42939,
        "meta_element_set_no": 999,
        "meta_rev_at_epoch": 6417,
        "meta_bstar": 0,
        "meta_mean_motion_dot": 9.9e-07,
        "meta_mean_motion_ddot": 0,
        "tle_line1": "1 42939U 17055A   25354.80457916  .00000099  00000+0  00000+0 0  9990",
        "tle_line2": "2 42939  64.0764 197.9542 0006306 223.7674 136.2560  2.13102071 64177"
      },
      "geometry": {
        "type": "Point",
        "coordinates": [
          30.192068711139232,
          -23.623396438559286
        ]
      }
    },
    {
      "type": "Feature",
      "properties": {
        "norad_id": 43508,
        "name": "COSMOS 2527 (756)",
        "group": "glo-ops",
        "lat": -49.354283944407726,
        "lon": -68.11896876839677,
        "alt_km": 19113.149088823862,
        "timestamp": "2025-12-22T11:33:20.700621+00:00",
        "meta_object_name": "COSMOS 2527 (756)",
        "meta_object_id": "2018-053A",
        "meta_epoch": "2025-12-22T04:09:24.888672",
        "meta_mean_motion": 2.13102388,
        "meta_eccentricity": 0.0008916,
        "meta_inclination": 65.4774,
        "meta_ra_of_asc_node": 79.8162,
        "meta_arg_of_pericenter": 227.1289,
        "meta_mean_anomaly": 132.8377,
        "meta_ephemeris_type": 0,
        "meta_classification_type": "U",
        "meta_norad_cat_id": 43508,
        "meta_element_set_no": 999,
        "meta_rev_at_epoch": 5850,
        "meta_bstar": 0,
        "meta_mean_motion_dot": -3e-08,
        "meta_mean_motion_ddot": 0,
        "tle_line1": "1 43508U 18053A   25356.17320473 -.00000003  00000+0  00000+0 0  9997",
        "tle_line2": "2 43508  65.4774  79.8162 0008916 227.1289 132.8377  2.13102388 58500"
      },
      "geometry": {
        "type": "Point",
        "coordinates": [
          -68.11896876839677,
          -49.354283944407726
        ]
      }
    },
    {
      "type": "Feature",
      "properties": {
        "norad_id": 43687,
        "name": "COSMOS 2529 (757)",
        "group": "glo-ops",
        "lat": 16.413853965357852,
        "lon": 10.401144061750566,
        "alt_km": 19128.813421771338,
        "timestamp": "2025-12-22T11:33:20.700633+00:00",
        "meta_object_name": "COSMOS 2529 (757)",
        "meta_object_id": "2018-086A",
        "meta_epoch": "2025-12-21T19:13:53.159808",
        "meta_mean_motion": 2.13102144,
        "meta_eccentricity": 0.0006924,
        "meta_inclination": 64.2925,
        "meta_ra_of_asc_node": 198.5822,
        "meta_arg_of_pericenter": 253.6174,
        "meta_mean_anomaly": 106.3763,
        "meta_ephemeris_type": 0,
        "meta_classification_type": "U",
        "meta_norad_cat_id": 43687,
        "meta_element_set_no": 999,
        "meta_rev_at_epoch": 5550,
        "meta_bstar": 0,
        "meta_mean_motion_dot": 9.6e-07,
        "meta_mean_motion_ddot": 0,
        "tle_line1": "1 43687U 18086A   25355.80130972  .00000096  00000+0  00000+0 0  9994",
        "tle_line2": "2 43687  64.2925 198.5822 0006924 253.6174 106.3763  2.13102144 55501"
      },
      "geometry": {
        "type": "Point",
        "coordinates": [
          10.401144061750566,
          16.413853965357852
        ]
      }
    },
    {
      "type": "Feature",
      "properties": {
        "norad_id": 44299,
        "name": "COSMOS 2534 (758)",
        "group": "glo-ops",
        "lat": -53.97308893013183,
        "lon": 157.22334343892211,
        "alt_km": 19114.123900702267,
        "timestamp": "2025-12-22T11:33:20.700644+00:00",
        "meta_object_name": "COSMOS 2534 (758)",
        "meta_object_id": "2019-030A",
        "meta_epoch": "2025-12-21T10:55:51.060576",
        "meta_mean_motion": 2.13102432,
        "meta_eccentricity": 0.00087289,
        "meta_inclination": 64.366,
        "meta_ra_of_asc_node": 198.5992,
        "meta_arg_of_pericenter": 284.1192,
        "meta_mean_anomaly": 304.9695,
        "meta_ephemeris_type": 0,
        "meta_classification_type": "U",
        "meta_norad_cat_id": 44299,
        "meta_element_set_no": 999,
        "meta_rev_at_epoch": 5113,
        "meta_bstar": 0,
        "meta_mean_motion_dot": 9.7e-07,
        "meta_mean_motion_ddot": 0,
        "tle_line1": "1 44299U 19030A   25355.45545209  .00000097  00000+0  00000+0 0  9999",
        "tle_line2": "2 44299  64.3660 198.5992 0008728 284.1192 304.9695  2.13102432 51134"
      },
      "geometry": {
        "type": "Point",
        "coordinates": [
          157.22334343892211,
          -53.97308893013183
        ]
      }
    },
    {
      "type": "Feature",
      "properties": {
        "norad_id": 44850,
        "name": "COSMOS 2544 (759)",
        "group": "glo-ops",
        "lat": -63.99034663667133,
        "lon": 10.49830685013778,
        "alt_km": 19104.449616320424,
        "timestamp": "2025-12-22T11:33:20.700655+00:00",
        "meta_object_name": "COSMOS 2544 (759)",
        "meta_object_id": "2019-088A",
        "meta_epoch": "2025-12-22T02:49:35.422176",
        "meta_mean_motion": 2.13102165,
        "meta_eccentricity": 0.0014312,
        "meta_inclination": 65.4645,
        "meta_ra_of_asc_node": 79.6449,
        "meta_arg_of_pericenter": 250.3028,
        "meta_mean_anomaly": 109.5843,
        "meta_ephemeris_type": 0,
        "meta_classification_type": "U",
        "meta_norad_cat_id": 44850,
        "meta_element_set_no": 999,
        "meta_rev_at_epoch": 4694,
        "meta_bstar": 0,
        "meta_mean_motion_dot": -3e-08,
        "meta_mean_motion_ddot": 0,
        "tle_line1": "1 44850U 19088A   25356.11777109 -.00000003  00000+0  00000+0 0  9993",
        "tle_line2": "2 44850  65.4645  79.6449 0014312 250.3028 109.5843  2.13102165 46947"
      },
      "geometry": {
        "type": "Point",
        "coordinates": [
          10.49830685013778,
          -63.99034663667133
        ]
      }
    },
    {
      "type": "Feature",
      "properties": {
        "norad_id": 45358,
        "name": "COSMOS 2545 (760)",
        "group": "glo-ops",
        "lat": 44.76367968859794,
        "lon": 110.32891368586444,
        "alt_km": 19139.842810820555,
        "timestamp": "2025-12-22T11:33:20.700666+00:00",
        "meta_object_name": "COSMOS 2545 (760)",
        "meta_object_id": "2020-018A",
        "meta_epoch": "2025-12-20T21:44:12.708096",
        "meta_mean_motion": 2.13102664,
        "meta_eccentricity": 0.00114269,
        "meta_inclination": 64.4648,
        "meta_ra_of_asc_node": 318.6832,
        "meta_arg_of_pericenter": 250.0027,
        "meta_mean_anomaly": 109.8672,
        "meta_ephemeris_type": 0,
        "meta_classification_type": "U",
        "meta_norad_cat_id": 45358,
        "meta_element_set_no": 999,
        "meta_rev_at_epoch": 4486,
        "meta_bstar": 0,
        "meta_mean_motion_dot": -5e-07,
        "meta_mean_motion_ddot": 0,
        "tle_line1": "1 45358U 20018A   25354.90570264 -.00000050  00000+0  00000+0 0  9992",
        "tle_line2": "2 45358  64.4648 318.6832 0011426 250.0027 109.8672  2.13102664 44860"
      },
      "geometry": {
        "type": "Point",
        "coordinates": [
          110.32891368586444,
          44.76367968859794
        ]
      }
    }
  ]
}